[{"OBJECT_NAME":"STARLINK-5988","OBJECT_ID":"2023-058D","EPOCH":"2026-03-09T22:39:15.603840","MEAN_MOTION":15.01262386,"ECCENTRICITY":0.0002859,"INCLINATION":97.6044,"RA_OF_ASC_NODE":70.3858,"ARG_OF_PERICENTER":67.357,"MEAN_ANOMALY":292.7956,"EPHEMERIS_TYPE":0,"CLASSIFICATION_TYPE":"U","NORAD_CAT_ID":56320,"ELEMENT_SET_NO":999,"REV_AT_EPOCH":15782,"BSTAR":5.4072305e-5,"MEAN_MOTION_DOT":6.36e-6,"MEAN_MOTION_DDOT":0},{"OBJECT_NAME":"NOAA 16 DEB","OBJECT_ID":"2000-055FT","EPOCH":"2026-03-09T11:21:21.418848","MEAN_MOTION":14.95188517,"ECCENTRICITY":0.00213748,"INCLINATION":98.8051,"RA_OF_ASC_NODE":256.9705,"ARG_OF_PERICENTER":245.6688,"MEAN_ANOMALY":114.2298,"EPHEMERIS_TYPE":0,"CLASSIFICATION_TYPE":"U","NORAD_CAT_ID":41267,"ELEMENT_SET_NO":999,"REV_AT_EPOCH":53609,"BSTAR":0.0049990459,"MEAN_MOTION_DOT":0.00055514,"MEAN_MOTION_DDOT":0}]
